ORBCOMM FM20 [+]        
1 25416U 98046D   24067.54393732  .00001536  00000+0  58398-3 0  9990
2 25416  44.9931 227.2039 0000725 166.9424 193.1441 14.34951947337228
ORBCOMM FM16 [-]        
1 25417U 98046E   24068.51812674  .00002105  00000+0  76838-3 0  9992
2 25417  44.9928 218.8267 0004126 132.3243 227.7955 14.35839177337471
ORBCOMM FM15 [-]        
1 25418U 98046F   24068.46296428  .00001998  00000+0  73576-3 0  9995
2 25418  44.9960 223.0017 0003770 133.5641 226.5520 14.35578938337423
ORBCOMM FM14 [-]        
1 25419U 98046G   24067.54182753  .00002203  00000+0  80374-3 0  9993
2 25419  44.9944 226.5476 0002419 125.9755 345.5275 14.35719506337307
ORBCOMM FM13 [+]        
1 25420U 98046H   24067.53529735  .00001803  00000+0  67554-3 0  9999
2 25420  44.9965 231.1063 0004531 105.1398 254.9950 14.35059060337277
ORBCOMM FM21 [-]        
1 25475U 98053A   24068.04076004  .00001381  00000+0  52947-3 0  9991
2 25475  45.0095 312.9616 0001213  27.2531 332.8380 14.35030172330563
ORBCOMM FM22 [-]        
1 25476U 98053B   24068.04046244  .00001693  00000+0  63193-3 0  9996
2 25476  45.0089 310.4947 0002815  37.1608 322.9434 14.35502906330582
ORBCOMM FM23 [-]        
1 25477U 98053C   24068.41866337  .00001554  00000+0  58921-3 0  9990
2 25477  45.0095 313.6220 0002173  32.2019 327.8961 14.35058468330744
